IRIDIUM 7 [-]           
1 24793U 97020B   23267.59224229  .00000632  00000+0  21557-3 0  9991
2 24793  86.3905  81.4410 0002242  85.5462 274.5990 14.34897272381292
IRIDIUM 5 [-]           
1 24795U 97020D   23267.38602301  .00006732  00000+0  68700-3 0  9999
2 24795  86.4001  12.3950 0127533 227.2450 131.7990 14.84546256391447
IRIDIUM 4 [-]           
1 24796U 97020E   23267.55967393  .00000747  00000+0  25150-3 0  9996
2 24796  86.3903  78.7495 0002216  91.3137 268.8314 14.35805381381804
IRIDIUM 914 [-]         
1 24836U 97030A   23267.60457631  .00000767  00000+0  23935-3 0  9998
2 24836  86.3873  89.1843 0003569 113.9040 246.2533 14.39598673516220
IRIDIUM 16 [-]          
1 24841U 97030F   23267.60682558  .00000619  00000+0  20037-3 0  9998
2 24841  86.3990 110.4885 0002484  32.2567 327.8782 14.37496400376232
IRIDIUM 911 [-]         
1 24842U 97030G   23267.59163180  .00000808  00000+0  22085-3 0  9997
2 24842  86.4416 109.8407 0015974  47.1703 313.0839 14.46007768383765
IRIDIUM 920 [-]         
1 24871U 97034C   23267.54936197  .00000583  00000+0  17771-3 0  9990
2 24871  86.3949 120.8883 0012107  14.2769 345.8770 14.40312428375887
